NORAD_CAT_ID,OBJECT_NAME,OBJECT_TYPE,EPOCH,MEAN_MOTION,ECCENTRICITY,INCLINATION,RA_OF_ASC_NODE,ARG_OF_PERICENTER,MEAN_ANOMALY,BSTAR,MEAN_MOTION_DOT,MEAN_MOTION_DDOT,TLE_LINE0,TLE_LINE1,TLE_LINE2,SEMIMAJOR_AXIS,PERIOD,APOGEE,PERIGEE,DECAYED
51747.0,STARLINK-3446,PAYLOAD,2022-07-16 14:00:01,15.088547199999995,0.0001987,53.2166,179.1642,53.9727,209.7779,-0.0020157,-0.00032239,0.0,0 STARLINK-3446,1 51747U 22016AK  22197.58334491 -.00032239  00000-0 -20157-2 0  9991,2 51747  53.2166 179.1642 0001987  53.9727 209.7779 15.08854720 23597,6917.835,95.437,541.075,538.326,0.0
51747.0,STARLINK-3446,PAYLOAD,2022-07-16 22:00:00,15.08833618,0.0001939,53.2168,177.6667,60.4729,214.8791,0.0020147,0.00031916,0.0,0 STARLINK-3446,1 51747U 22016AK  22197.91667824  .00031916  00000-0  20147-2 0  9995,2 51747  53.2168 177.6667 0001939  60.4729 214.8791 15.08833618  1300,6917.9,95.438,541.106,538.424,0.0
51747.0,STARLINK-3446,PAYLOAD,2022-07-17 06:00:00,15.08848544,0.0002093,53.2169,176.1722,55.0928,231.8624,-0.00025065,-4.276e-05,0.0,0 STARLINK-3446,1 51747U 22016AK  22198.25001157 -.00004276  00000-0 -25065-3 0  9990,2 51747  53.2169 176.1722 0002093  55.0928 231.8624 15.08848544 23694,6917.854,95.437,541.1669999999998,538.271,0.0
51747.0,STARLINK-3446,PAYLOAD,2022-07-17 14:00:01,15.08863961,0.0001981,53.2169,174.6752,53.6782,244.8794,-0.0039375,-0.00062453,0.0,0 STARLINK-3446,1 51747U 22016AK  22198.58334491 -.00062453  00000-0 -39375-2 0  9995,2 51747  53.2169 174.6752 0001981  53.6782 244.8794 15.08863961  1303,6917.807,95.436,541.043,538.302,0.0
51747.0,STARLINK-3446,PAYLOAD,2022-07-17 22:00:00,15.0882361,0.0001911,53.2172,173.1779,59.5549,250.5977,0.0018925,0.00029946,0.0,0 STARLINK-3446,1 51747U 22016AK  22198.91667824  .00029946  00000-0  18925-2 0  9997,2 51747  53.2172 173.1779 0001911  59.5549 250.5977 15.08823610  1303,6917.93,95.439,541.118,538.4730000000002,0.0
51747.0,STARLINK-3446,PAYLOAD,2022-07-18 14:00:01,15.08858423,0.0002031,53.2173,170.1862,54.0513,279.2719,-0.0020231,-0.00032359,0.0,0 STARLINK-3446,1 51747U 22016AK  22199.58334491 -.00032359  00000-0 -20231-2 0  9999,2 51747  53.2173 170.1862 0002031  54.0513 279.2719 15.08858423  1301,6917.824000000001,95.436,541.094,538.284,0.0
51747.0,STARLINK-3446,PAYLOAD,2022-07-18 16:00:00,15.08844349,0.0001977,53.2175,169.8116,56.3116,9.9171,-0.00035838,-5.988e-05,0.0,0 STARLINK-3446,1 51747U 22016AK  22199.66667824 -.00005988  00000-0 -35838-3 0  9995,2 51747  53.2175 169.8116 0001977  56.3116   9.9171 15.08844349 23915,6917.8669999999975,95.437,541.1,538.364,0.0
51747.0,STARLINK-3446,PAYLOAD,2022-07-18 22:00:00,15.08853492,0.0001952,53.2176,168.68900000000005,59.1375,285.7868,-0.0016236,-0.00026045,0.0,0 STARLINK-3446,1 51747U 22016AK  22199.91667824 -.00026045  00000-0 -16236-2 0  9990,2 51747  53.2176 168.6890 0001952  59.1375 285.7868 15.08853492  1308,6917.839,95.437,541.055,538.354,0.0
51747.0,STARLINK-3446,PAYLOAD,2022-07-19 14:00:01,15.08850905,0.0002003,53.2176,165.6972,54.2067,313.9025,-0.0016538,-0.0002652,0.0,0 STARLINK-3446,1 51747U 22016AK  22200.58334491 -.00026520  00000-0 -16538-2 0  9990,2 51747  53.2176 165.6972 0002003  54.2067 313.9025 15.08850905  1303,6917.847,95.437,541.0980000000002,538.326,0.0
51747.0,STARLINK-3446,PAYLOAD,2022-07-19 22:00:00,15.08883056,0.000193,53.2177,164.2026,58.8495,320.8346,-0.006693,-0.00105379,0.0,0 STARLINK-3446,1 51747U 22016AK  22200.91667824 -.00105379  00000-0 -66930-2 0  9997,2 51747  53.2177 164.2026 0001930  58.8495 320.8346 15.08883056  1308,6917.749,95.435,540.9490000000002,538.279,0.0
51747.0,STARLINK-3446,PAYLOAD,2022-07-20 06:00:00,15.0886277,0.0002075,53.2178,162.7056,53.7216,337.5991,-0.001348,-0.00021691,0.0,0 STARLINK-3446,1 51747U 22016AK  22201.25001157 -.00021691  00000-0 -13480-2 0  9992,2 51747  53.2178 162.7056 0002075  53.7216 337.5991 15.08862770 24150,6917.811,95.436,541.111,538.24,0.0
51747.0,STARLINK-3446,PAYLOAD,2022-07-20 14:00:01,15.088578,0.0001888,53.2177,161.208,54.27,348.6652,-0.0018515,-0.00029649,0.0,0 STARLINK-3446,1 51747U 22016AK  22201.58334491 -.00029649  00000-0 -18515-2 0  9993,2 51747  53.2177 161.2080 0001888  54.2700 348.6652 15.08857800  1302,6917.826,95.436,540.997,538.385,0.0
51747.0,STARLINK-3446,PAYLOAD,2022-07-20 22:00:01,15.08836717,0.0001773,53.2179,159.7112,58.0008,356.5939,-0.00057276,-9.391e-05,0.0,0 STARLINK-3446,1 51747U 22016AK  22201.91668981 -.00009391  00000-0 -57276-3 0  9994,2 51747  53.2179 159.7112 0001773  58.0008 356.5939 15.08836717  1308,6917.89,95.438,540.982,538.529,0.0
51747.0,STARLINK-3446,PAYLOAD,2022-07-21 08:00:01,15.08789674,0.0001846,53.2175,157.8426,48.3762,110.6438,0.0021774999999999,0.00034489,0.0,0 STARLINK-3446,1 51747U 22016AK  22202.33334491  .00034489  00000-0  21775-2 0  9995,2 51747  53.2175 157.8426 0001846  48.3762 110.6438 15.08789674 24319,6918.034000000002,95.441,541.1759999999998,538.622,0.0
51747.0,STARLINK-3446,PAYLOAD,2022-07-21 14:00:01,15.08812221,0.0001719,53.2175,156.719,52.6046,25.1347,-0.0011769999999999,-0.00018957,0.0,0 STARLINK-3446,1 51747U 22016AK  22202.58335648 -.00018957  00000-0 -11770-2 0  9995,2 51747  53.2175 156.7190 0001719  52.6046  25.1347 15.08812221  1305,6917.965,95.439,541.019,538.641,0.0
51747.0,STARLINK-3446,PAYLOAD,2022-07-21 22:00:00,15.08815042,0.0001713,53.2176,155.2256,53.6985,35.5286,0.0025118,0.00039887,0.0,0 STARLINK-3446,1 51747U 22016AK  22202.91667824  .00039887  00000-0  25118-2 0  9990,2 51747  53.2176 155.2256 0001713  53.6985  35.5286 15.08815042  1301,6917.956999999999,95.439,541.007,538.637,0.0
51747.0,STARLINK-3446,PAYLOAD,2022-07-22 06:00:00,15.08804894,0.0001824,53.2174,153.7279,51.4554,49.3509,0.0021276999999999,0.00033704,0.0,0 STARLINK-3446,1 51747U 22016AK  22203.25001157  .00033704  00000-0  21277-2 0  9993,2 51747  53.2174 153.7279 0001824  51.4554  49.3509 15.08804894 24453,6917.988,95.44,541.115,538.591,0.0
51747.0,STARLINK-3446,PAYLOAD,2022-07-22 22:00:00,15.08849257,0.0001695,53.2172,150.7338,60.1323,63.8282,1.8475e-05,6e-08,0.0,0 STARLINK-3446,1 51747U 22016AK  22203.91667824  .00000006  00000-0  18475-4 0  9992,2 51747  53.2172 150.7338 0001695  60.1323  63.8282 15.08849257  1301,6917.852,95.437,540.89,538.545,0.0
51747.0,STARLINK-3446,PAYLOAD,2022-07-23 08:00:01,15.08839534,0.0001798,53.2167,148.865,51.8861,176.5735,0.00018059,2.587e-05,0.0,0 STARLINK-3446,1 51747U 22016AK  22204.33334491  .00002587  00000-0  18059-3 0  9993,2 51747  53.2167 148.8650 0001798  51.8861 176.5735 15.08839534 24619,6917.882,95.438,540.991,538.503,0.0
51747.0,STARLINK-3446,PAYLOAD,2022-07-23 14:00:01,15.08835121,0.0001639,53.2168,147.7412,56.2016,91.0233,-0.0014585,-0.00023422,0.0,0 STARLINK-3446,1 51747U 22016AK  22204.58335648 -.00023422  00000-0 -14585-2 0  9997,2 51747  53.2168 147.7412 0001639  56.2016  91.0233 15.08835121  1302,6917.895,95.438,540.894,538.626,0.0
51747.0,STARLINK-3446,PAYLOAD,2022-07-23 22:00:00,15.0886974,0.0001684,53.2169,146.2449,60.4915,98.279,-0.0025987,-0.00041443,0.0,0 STARLINK-3446,1 51747U 22016AK  22204.91667824 -.00041443  00000-0 -25987-2 0  9999,2 51747  53.2169 146.2449 0001684  60.4915  98.2790 15.08869740  1303,6917.7890000000025,95.436,540.819,538.49,0.0
51747.0,STARLINK-3446,PAYLOAD,2022-07-24 14:00:01,15.088262900000002,0.00016,53.2168,143.2522,55.0747,126.899,-0.00080405,-0.00013057,0.0,0 STARLINK-3446,1 51747U 22016AK  22205.58334491 -.00013057  00000-0 -80405-3 0  9991,2 51747  53.2168 143.2522 0001600  55.0747 126.8990 15.08826290  1305,6917.922,95.438,540.894,538.68,0.0
51747.0,STARLINK-3446,PAYLOAD,2022-07-24 22:00:00,15.08836771,0.0001649,53.217,141.7561,58.1216,135.4196,-0.00069996,-0.0001141,0.0,0 STARLINK-3446,1 51747U 22016AK  22205.91667824 -.00011410  00000-0 -69996-3 0  9990,2 51747  53.2170 141.7561 0001649  58.1216 135.4196 15.08836771  1301,6917.89,95.438,540.896,538.614,0.0
51747.0,STARLINK-3446,PAYLOAD,2022-07-25 14:00:01,15.08828913,0.0001672,53.2173,138.7632,55.4354,161.2742,0.00075892,0.00011807,0.0,0 STARLINK-3446,1 51747U 22016AK  22206.58334491  .00011807  00000-0  75892-3 0  9995,2 51747  53.2173 138.7632 0001672  55.4354 161.2742 15.08828913  1301,6917.9140000000025,95.438,540.936,538.623,0.0
51747.0,STARLINK-3446,PAYLOAD,2022-07-25 22:00:00,15.0885431,0.0001757,53.2175,137.2673,58.1384,170.1517,-0.00097583,-0.00015791,0.0,0 STARLINK-3446,1 51747U 22016AK  22206.91667824 -.00015791  00000-0 -97583-3 0  9990,2 51747  53.2175 137.2673 0001757  58.1384 170.1517 15.08854310  1308,6917.837,95.437,540.9169999999998,538.486,0.0
51747.0,STARLINK-3446,PAYLOAD,2022-07-26 14:00:01,15.08850141,0.0001733999999999,53.218,134.2743,56.3822,195.1187,-8.918299999999999e-05,-1.708e-05,0.0,0 STARLINK-3446,1 51747U 22016AK  22207.58334491 -.00001708  00000-0 -89183-4 0  9996,2 51747  53.2180 134.2743 0001734  56.3822 195.1187 15.08850141  1309,6917.849,95.437,540.914,538.515,0.0
51747.0,STARLINK-3446,PAYLOAD,2022-07-26 22:00:00,15.08856002,0.0001758,53.2182,132.7785,57.2156,205.8912,-0.0020449,-0.000327,0.0,0 STARLINK-3446,1 51747U 22016AK  22207.91667824 -.00032700  00000-0 -20449-2 0  9996,2 51747  53.2182 132.7785 0001758  57.2156 205.8912 15.08856002 25152,6917.831,95.437,540.913,538.48,0.0
51747.0,STARLINK-3446,PAYLOAD,2022-07-27 14:00:01,15.08826621,0.0001727,53.2187,129.7856,56.3642,229.9362,0.0017973,0.00028421,0.0,0 STARLINK-3446,1 51747U 22016AK  22208.58334491  .00028421  00000-0  17973-2 0  9992,2 51747  53.2187 129.7856 0001727  56.3642 229.9362 15.08826621  1309,6917.920999999999,95.438,540.981,538.592,0.0
51747.0,STARLINK-3446,PAYLOAD,2022-07-27 16:00:00,15.0881821,0.0001699,53.2185,129.4112,58.1841,321.0173,0.0032948,0.00052508,0.0,0 STARLINK-3446,1 51747U 22016AK  22208.66667824  .00052508  00000-0  32948-2 0  9992,2 51747  53.2185 129.4112 0001699  58.1841 321.0173 15.08818210 25268,6917.946999999999,95.439,540.987,538.637,0.0
